0 SL-6 R/B(2)
1 11550U 79077D   13286.71360100  .00000154  00000-0  00000+0 0  5906
2 11550 067.1509 064.4238 5946096 084.0278 238.8228 01.98924621247982
0 SL-6 R/B(2)
1 11550U 79077D   13290.09292951  .00000419  00000-0  00000+0 0  5915
2 11550 067.1523 064.2032 5947461 083.9542 138.8716 01.98923783248055
0 SL-6 R/B(2)
1 11550U 79077D   13294.82615675  .00000724  00000-0  00000+0 0  5922
2 11550 067.1547 063.8945 5949331 083.8519 288.4997 01.98926291248140
